[{"OBJECT_NAME":"STARLINK-35764","OBJECT_ID":"2025-299H","EPOCH":"2026-03-09T22:00:01.999584","MEAN_MOTION":15.33219164,"ECCENTRICITY":0.00011543,"INCLINATION":43.0006,"RA_OF_ASC_NODE":167.6811,"ARG_OF_PERICENTER":268.9398,"MEAN_ANOMALY":10.8948,"EPHEMERIS_TYPE":0,"CLASSIFICATION_TYPE":"U","NORAD_CAT_ID":67109,"ELEMENT_SET_NO":999,"REV_AT_EPOCH":589,"BSTAR":-0.068626108,"MEAN_MOTION_DOT":-0.02032733,"MEAN_MOTION_DDOT":0},{"OBJECT_NAME":"TWILIGHT-1 OBJECT AM","OBJECT_ID":"2026-004AM","EPOCH":"2026-03-09T21:33:48.157056","MEAN_MOTION":15.18322699,"ECCENTRICITY":0.0006202,"INCLINATION":97.4587,"RA_OF_ASC_NODE":69.4247,"ARG_OF_PERICENTER":348.8142,"MEAN_ANOMALY":11.2953,"EPHEMERIS_TYPE":0,"CLASSIFICATION_TYPE":"U","NORAD_CAT_ID":67398,"ELEMENT_SET_NO":999,"REV_AT_EPOCH":869,"BSTAR":0.00056644606,"MEAN_MOTION_DOT":0.00011571,"MEAN_MOTION_DDOT":0}]
